QIANFAN-17              
1 60395U 24140S   25365.25001086  .00000167  00000+0  23927-3 0  9996
2 60395  88.9787 297.5224 0015452 145.6001 214.6154 13.50981061 70630
QIANFAN-18              
1 60396U 24140T   25365.30349138  .00000181  00000+0  26106-3 0  9994
2 60396  88.9780 297.0492 0015295 128.7449 231.5072 13.50981204 70039
QIANFAN-19              
1 61552U 24185A   25365.26301912  .00000824  00000+0  42391-3 0  9999
2 61552  88.9810  75.8224 0005258 232.0983 127.9729 14.14317395 72284
QIANFAN-20              
1 61553U 24185B   25365.22514101  .00000802  00000+0  45663-3 0  9993
2 61553  88.9808  76.1692 0003594 290.9122  69.1677 14.08864141 72091
QIANFAN-21              
1 61554U 24185C   25365.24935750  .00001069  00000+0  47175-3 0  9999
2 61554  88.9724  74.8150 0008626 309.1663  50.8761 14.22636139 72605
QIANFAN-22              
1 61555U 24185D   25365.26745727  .00000280  00000+0  23089-3 0  9997
2 61555  88.9793  77.2199 0004567 308.6566  51.4196 13.86310862 71506
QIANFAN-23              
1 61556U 24185E   25365.28297884  .00000781  00000+0  38707-3 0  9995
2 61556  88.9801  75.6210 0005697 248.4632 111.5949 14.16312849 72374
QIANFAN-24              
1 61557U 24185F   25365.23643475  .00001074  00000+0  46315-3 0  9992
2 61557  88.9783  75.0010 0007915 227.4276 132.6249 14.23837400 72653
